{
  "type": "FeatureCollection",
  "features": [
    {
      "type": "Feature",
      "properties": {
        "norad_id": 28890,
        "name": "BEIJING 1",
        "group": "dmc",
        "lat": 74.25925585758738,
        "lon": 86.2613994813799,
        "alt_km": 669.0091108232973,
        "timestamp": "2025-12-15T19:00:45.013009+00:00",
        "meta_object_name": "BEIJING 1",
        "meta_object_id": "2005-043A",
        "meta_epoch": "2025-12-14T22:58:17.660640",
        "meta_mean_motion": 14.6337014,
        "meta_eccentricity": 0.00154261,
        "meta_inclination": 98.2647,
        "meta_ra_of_asc_node": 116.4687,
        "meta_arg_of_pericenter": 134.5691,
        "meta_mean_anomaly": 225.6773,
        "meta_ephemeris_type": 0,
        "meta_classification_type": "U",
        "meta_norad_cat_id": 28890,
        "meta_element_set_no": 999,
        "meta_rev_at_epoch": 7370,
        "meta_bstar": 0.00015529116,
        "meta_mean_motion_dot": 7.55e-06,
        "meta_mean_motion_ddot": 0,
        "tle_line1": "1 28890U 05043A   25348.95714885  .00000755  00000+0  15529-3 0  9999",
        "tle_line2": "2 28890  98.2647 116.4687 0015426 134.5691 225.6773 14.63370140 73703"
      },
      "geometry": {
        "type": "Point",
        "coordinates": [
          86.2613994813799,
          74.25925585758738
        ]
      }
    },
    {
      "type": "Feature",
      "properties": {
        "norad_id": 33320,
        "name": "HUANJING 1A (HJ-1A)",
        "group": "dmc",
        "lat": -36.155671270800546,
        "lon": -16.397293928652466,
        "alt_km": 618.1499176258212,
        "timestamp": "2025-12-15T19:00:45.013033+00:00",
        "meta_object_name": "HUANJING 1A (HJ-1A)",
        "meta_object_id": "2008-041A",
        "meta_epoch": "2025-12-14T23:44:58.998336",
        "meta_mean_motion": 14.83404436,
        "meta_eccentricity": 0.00199985,
        "meta_inclination": 97.6542,
        "meta_ra_of_asc_node": 337.1942,
        "meta_arg_of_pericenter": 27.2683,
        "meta_mean_anomaly": 332.9577,
        "meta_ephemeris_type": 0,
        "meta_classification_type": "U",
        "meta_norad_cat_id": 33320,
        "meta_element_set_no": 999,
        "meta_rev_at_epoch": 93109,
        "meta_bstar": 0.00026301968,
        "meta_mean_motion_dot": 2.114e-05,
        "meta_mean_motion_ddot": 0,
        "tle_line1": "1 33320U 08041A   25348.98957174  .00002114  00000+0  26302-3 0  9999",
        "tle_line2": "2 33320  97.6542 337.1942 0019998  27.2683 332.9577 14.83404436931094"
      },
      "geometry": {
        "type": "Point",
        "coordinates": [
          -16.397293928652466,
          -36.155671270800546
        ]
      }
    },
    {
      "type": "Feature",
      "properties": {
        "norad_id": 33321,
        "name": "HUANJING 1B (HJ-1B)",
        "group": "dmc",
        "lat": 0.8888821503864566,
        "lon": 161.77184704067082,
        "alt_km": 633.6488134091969,
        "timestamp": "2025-12-15T19:00:45.013048+00:00",
        "meta_object_name": "HUANJING 1B (HJ-1B)",
        "meta_object_id": "2008-041B",
        "meta_epoch": "2025-12-14T22:46:38.258688",
        "meta_mean_motion": 14.82831512,
        "meta_eccentricity": 0.00381689,
        "meta_inclination": 97.6403,
        "meta_ra_of_asc_node": 340.8467,
        "meta_arg_of_pericenter": 68.7673,
        "meta_mean_anomaly": 291.7612,
        "meta_ephemeris_type": 0,
        "meta_classification_type": "U",
        "meta_norad_cat_id": 33321,
        "meta_element_set_no": 999,
        "meta_rev_at_epoch": 93110,
        "meta_bstar": 0.00027524274,
        "meta_mean_motion_dot": 2.204e-05,
        "meta_mean_motion_ddot": 0,
        "tle_line1": "1 33321U 08041B   25348.94905392  .00002204  00000+0  27524-3 0  9998",
        "tle_line2": "2 33321  97.6403 340.8467 0038168  68.7673 291.7612 14.82831512931105"
      },
      "geometry": {
        "type": "Point",
        "coordinates": [
          161.77184704067082,
          0.8888821503864566
        ]
      }
    },
    {
      "type": "Feature",
      "properties": {
        "norad_id": 33446,
        "name": "YAOGAN-4",
        "group": "dmc",
        "lat": 81.99472380751807,
        "lon": -161.87279545137923,
        "alt_km": 620.1253972781933,
        "timestamp": "2025-12-15T19:00:45.013060+00:00",
        "meta_object_name": "YAOGAN-4",
        "meta_object_id": "2008-061A",
        "meta_epoch": "2025-12-14T19:56:16.699776",
        "meta_mean_motion": 14.82690709,
        "meta_eccentricity": 0.00134312,
        "meta_inclination": 97.9179,
        "meta_ra_of_asc_node": 278.9095,
        "meta_arg_of_pericenter": 315.9902,
        "meta_mean_anomaly": 44.0242,
        "meta_ephemeris_type": 0,
        "meta_classification_type": "U",
        "meta_norad_cat_id": 33446,
        "meta_element_set_no": 999,
        "meta_rev_at_epoch": 91834,
        "meta_bstar": 0.00021548269,
        "meta_mean_motion_dot": 1.687e-05,
        "meta_mean_motion_ddot": 0,
        "tle_line1": "1 33446U 08061A   25348.83074884  .00001687  00000+0  21548-3 0  9993",
        "tle_line2": "2 33446  97.9179 278.9095 0013431 315.9902  44.0242 14.82690709918342"
      },
      "geometry": {
        "type": "Point",
        "coordinates": [
          -161.87279545137923,
          81.99472380751807
        ]
      }
    },
    {
      "type": "Feature",
      "properties": {
        "norad_id": 35681,
        "name": "DEIMOS-1",
        "group": "dmc",
        "lat": 45.68111920475443,
        "lon": -21.76757022915676,
        "alt_km": 640.388907131939,
        "timestamp": "2025-12-15T19:00:45.013072+00:00",
        "meta_object_name": "DEIMOS-1",
        "meta_object_id": "2009-041A",
        "meta_epoch": "2025-12-14T21:14:33.398592",
        "meta_mean_motion": 14.74958653,
        "meta_eccentricity": 0.00027201,
        "meta_inclination": 97.7147,
        "meta_ra_of_asc_node": 149.3884,
        "meta_arg_of_pericenter": 76.4838,
        "meta_mean_anomaly": 283.6675,
        "meta_ephemeris_type": 0,
        "meta_classification_type": "U",
        "meta_norad_cat_id": 35681,
        "meta_element_set_no": 999,
        "meta_rev_at_epoch": 87971,
        "meta_bstar": 0.00019439256,
        "meta_mean_motion_dot": 1.259e-05,
        "meta_mean_motion_ddot": 0,
        "tle_line1": "1 35681U 09041A   25348.88510878  .00001259  00000+0  19439-3 0  9999",
        "tle_line2": "2 35681  97.7147 149.3884 0002720  76.4838 283.6675 14.74958653879715"
      },
      "geometry": {
        "type": "Point",
        "coordinates": [
          -21.76757022915676,
          45.68111920475443
        ]
      }
    },
    {
      "type": "Feature",
      "properties": {
        "norad_id": 35683,
        "name": "UK-DMC 2",
        "group": "dmc",
        "lat": 23.505124716543076,
        "lon": -51.94978766855247,
        "alt_km": 642.193968666872,
        "timestamp": "2025-12-15T19:00:45.013084+00:00",
        "meta_object_name": "UK-DMC 2",
        "meta_object_id": "2009-041C",
        "meta_epoch": "2025-12-14T22:46:42.124224",
        "meta_mean_motion": 14.75629993,
        "meta_eccentricity": 0.00014859,
        "meta_inclination": 97.8555,
        "meta_ra_of_asc_node": 123.7888,
        "meta_arg_of_pericenter": 96.5163,
        "meta_mean_anomaly": 263.6216,
        "meta_ephemeris_type": 0,
        "meta_classification_type": "U",
        "meta_norad_cat_id": 35683,
        "meta_element_set_no": 999,
        "meta_rev_at_epoch": 87939,
        "meta_bstar": 0.00025271201,
        "meta_mean_motion_dot": 1.676e-05,
        "meta_mean_motion_ddot": 0,
        "tle_line1": "1 35683U 09041C   25348.94909866  .00001676  00000+0  25271-3 0  9991",
        "tle_line2": "2 35683  97.8555 123.7888 0001485  96.5163 263.6216 14.75629993879398"
      },
      "geometry": {
        "type": "Point",
        "coordinates": [
          -51.94978766855247,
          23.505124716543076
        ]
      }
    },
    {
      "type": "Feature",
      "properties": {
        "norad_id": 40715,
        "name": "DMC3-FM1",
        "group": "dmc",
        "lat": -46.75198309997011,
        "lon": -134.89059463692158,
        "alt_km": 615.8527565751992,
        "timestamp": "2025-12-15T19:00:45.013095+00:00",
        "meta_object_name": "DMC3-FM1",
        "meta_object_id": "2015-032A",
        "meta_epoch": "2025-12-14T22:12:29.572992",
        "meta_mean_motion": 14.85446025,
        "meta_eccentricity": 0.00045036,
        "meta_inclination": 97.6693,
        "meta_ra_of_asc_node": 216.0382,
        "meta_arg_of_pericenter": 312.8036,
        "meta_mean_anomaly": 47.2801,
        "meta_ephemeris_type": 0,
        "meta_classification_type": "U",
        "meta_norad_cat_id": 40715,
        "meta_element_set_no": 999,
        "meta_rev_at_epoch": 56255,
        "meta_bstar": 0.0001544865,
        "meta_mean_motion_dot": 1.28e-05,
        "meta_mean_motion_ddot": 0,
        "tle_line1": "1 40715U 15032A   25348.92534228  .00001280  00000+0  15449-3 0  9991",
        "tle_line2": "2 40715  97.6693 216.0382 0004503 312.8036  47.2801 14.85446025562550"
      },
      "geometry": {
        "type": "Point",
        "coordinates": [
          -134.89059463692158,
          -46.75198309997011
        ]
      }
    },
    {
      "type": "Feature",
      "properties": {
        "norad_id": 40716,
        "name": "DMC3-FM2",
        "group": "dmc",
        "lat": -12.551160975781016,
        "lon": 36.599008582019465,
        "alt_km": 618.6382872576778,
        "timestamp": "2025-12-15T19:00:45.013105+00:00",
        "meta_object_name": "DMC3-FM2",
        "meta_object_id": "2015-032B",
        "meta_epoch": "2025-12-14T22:44:52.818720",
        "meta_mean_motion": 14.85450279,
        "meta_eccentricity": 0.00050892,
        "meta_inclination": 97.6752,
        "meta_ra_of_asc_node": 217.5055,
        "meta_arg_of_pericenter": 318.7997,
        "meta_mean_anomaly": 41.2834,
        "meta_ephemeris_type": 0,
        "meta_classification_type": "U",
        "meta_norad_cat_id": 40716,
        "meta_element_set_no": 999,
        "meta_rev_at_epoch": 56255,
        "meta_bstar": 0.00019708011,
        "meta_mean_motion_dot": 1.648e-05,
        "meta_mean_motion_ddot": 0,
        "tle_line1": "1 40716U 15032B   25348.94783355  .00001648  00000+0  19708-3 0  9991",
        "tle_line2": "2 40716  97.6752 217.5055 0005089 318.7997  41.2834 14.85450279562557"
      },
      "geometry": {
        "type": "Point",
        "coordinates": [
          36.599008582019465,
          -12.551160975781016
        ]
      }
    },
    {
      "type": "Feature",
      "properties": {
        "norad_id": 40717,
        "name": "DMC3-FM3",
        "group": "dmc",
        "lat": 74.85475792761244,
        "lon": -169.95219696573452,
        "alt_km": 606.6318140520325,
        "timestamp": "2025-12-15T19:00:45.013116+00:00",
        "meta_object_name": "DMC3-FM3",
        "meta_object_id": "2015-032C",
        "meta_epoch": "2025-12-14T21:39:02.636640",
        "meta_mean_motion": 14.85434908,
        "meta_eccentricity": 0.00045095,
        "meta_inclination": 97.6806,
        "meta_ra_of_asc_node": 219.0958,
        "meta_arg_of_pericenter": 320.7708,
        "meta_mean_anomaly": 39.318,
        "meta_ephemeris_type": 0,
        "meta_classification_type": "U",
        "meta_norad_cat_id": 40717,
        "meta_element_set_no": 999,
        "meta_rev_at_epoch": 56255,
        "meta_bstar": 8.7156959e-05,
        "meta_mean_motion_dot": 7e-06,
        "meta_mean_motion_ddot": 0,
        "tle_line1": "1 40717U 15032C   25348.90211385  .00000700  00000+0  87157-4 0  9999",
        "tle_line2": "2 40717  97.6806 219.0958 0004509 320.7708  39.3180 14.85434908562559"
      },
      "geometry": {
        "type": "Point",
        "coordinates": [
          -169.95219696573452,
          74.85475792761244
        ]
      }
    }
  ]
}